COMMENT,ORIGINATOR,NORAD_CAT_ID,OBJECT_NAME,OBJECT_TYPE,CLASSIFICATION_TYPE,INTLDES,EPOCH,EPOCH_MICROSECONDS,MEAN_MOTION,ECCENTRICITY,INCLINATION,RA_OF_ASC_NODE,ARG_OF_PERICENTER,MEAN_ANOMALY,EPHEMERIS_TYPE,ELEMENT_SET_NO,REV_AT_EPOCH,BSTAR,MEAN_MOTION_DOT,MEAN_MOTION_DDOT,FILE,TLE_LINE0,TLE_LINE1,TLE_LINE2,OBJECT_ID,OBJECT_NUMBER,SEMIMAJOR_AXIS,PERIOD,APOGEE,PERIGEE
"GENERATED VIA SPACETRACK.ORG API","JSPOC","40905","OBJECT G","TBA","U","15049G","2016-01-09 21:56:56","757984","15.12397021","0.0015109","97.4488","20.3551","221.9687","203.6241","0","999","1692","7.2786e-05","1.202e-05","0","1978244","0 OBJECT G","1 40905U 15049G   16009.91454581  .00001202  00000-0  72786-4 0  9999","2 40905  97.4488  20.3551 0015109 221.9687 203.6241 15.12397021 16924","2015-049G","40905","6907.029","95.213","539.330","518.458"
"GENERATED VIA SPACETRACK.ORG API","JSPOC","15597","COSMOS 1634","PAYLOAD","U","85022A","2016-01-09 21:57:03","839328","13.7503152","0.0034772","82.9401","160.7481","228.9747","242.2024","0","999","54643","4.5323e-05","5.8e-07","0","1978726","0 COSMOS 1634","1 15597U 85022A   16009.91462777 +.00000058 +00000-0 +45323-4 0  9997","2 15597 082.9401 160.7481 0034772 228.9747 242.2024 13.75031520546437","1985-022A","15597","7359.699","104.724","1007.155","955.973"
"GENERATED VIA SPACETRACK.ORG API","JSPOC","38860","SJ-9A","PAYLOAD","U","12056A","2016-01-09 21:57:07","548480","14.79007082","0.0030558","97.8774","87.7726","103.0783","257.3821","0","999","17485","5.9337e-05","3.9e-06","0","1978726","0 SJ-9A","1 38860U 12056A   16009.91467070 +.00000390 +00000-0 +59337-4 0  9992","2 38860 097.8774 087.7726 0030558 103.0783 257.3821 14.79007082174850","2012-056A","38860","7010.597","97.362","653.885","611.039"
"GENERATED VIA SPACETRACK.ORG API","JSPOC","33499","KKS-1 (KISEKI)","PAYLOAD","U","09002H","2016-01-09 21:57:10","947456","14.74826497","0.0008211","98.2633","156.0906","240.6126","119.4263","0","999","37365","7.2724e-05","4.34e-06","0","1978726","0 KKS-1 (KISEKI)","1 33499U 09002H   16009.91471004 +.00000434 +00000-0 +72724-4 0  9998","2 33499 098.2633 156.0906 0008211 240.6126 119.4263 14.74826497373653","2009-002H","33499","7023.839","97.638","651.471","639.936"
"GENERATED VIA SPACETRACK.ORG API","JSPOC","32404","THURAYA 3","PAYLOAD","U","08001A","2016-01-09 21:57:11","22624","1.00271437","0.0004806","4.2889","348.8326","293.2838","254.7039","0","999","2931","0","-2.93e-06","0","1978427","0 THURAYA 3","1 32404U 08001A   16009.91471091 -.00000293  00000-0  00000+0 0  9994","2 32404   4.2889 348.8326 0004806 293.2838 254.7039  1.00271437 29313","2008-001A","32404","42164.829","1436.101","35806.958","35766.430"
"GENERATED VIA SPACETRACK.ORG API","JSPOC","32404","THURAYA 3","PAYLOAD","U","08001A","2016-01-09 21:57:11","22624","1.00271437","0.0004806","4.2889","348.8326","293.2838","254.7039","0","999","2930","0","-2.93e-06","0","1978726","0 THURAYA 3","1 32404U 08001A   16009.91471091 -.00000293 +00000-0 +00000-0 0  9995","2 32404 004.2889 348.8326 0004806 293.2838 254.7039 01.00271437029302","2008-001A","32404","42164.829","1436.101","35806.958","35766.430"
"GENERATED VIA SPACETRACK.ORG API","JSPOC","36745","ARABSAT 5A","PAYLOAD","U","10032B","2016-01-09 21:57:11","260224","1.0027132","0.0003261","0.052","13.7369","271.972","182.9317","0","999","2044","0","1.58e-06","0","1978726","0 ARABSAT 5A","1 36745U 10032B   16009.91471366 +.00000158 +00000-0 +00000-0 0  9998","2 36745 000.0520 013.7369 0003261 271.9720 182.9317 01.00271320020440","2010-032B","36745","42164.862","1436.103","35800.477","35772.977"
"GENERATED VIA SPACETRACK.ORG API","JSPOC","16791","COSMOS 1758","PAYLOAD","U","86046A","2016-01-09 21:57:13","966272","15.03686544","0.0018262","82.4697","182.6264","73.9261","286.3974","0","999","60659","4.8646e-05","6.97e-06","0","1978726","0 COSMOS 1758","1 16791U 86046A   16009.91474498 +.00000697 +00000-0 +48646-4 0  9994","2 16791 082.4697 182.6264 0018262 073.9261 286.3974 15.03686544606595","1986-046A","16791","6933.677","95.764","568.204","542.880"
"GENERATED VIA SPACETRACK.ORG API","JSPOC","28413","SJ-6A","PAYLOAD","U","04035A","2016-01-09 21:57:15","871392","14.94013793","0.0016456","97.8244","19.0458","326.5043","33.5154","0","999","61699","7.7186e-05","7.66e-06","0","1978726","0 SJ-6A","1 28413U 04035A   16009.91476703 +.00000766 +00000-0 +77186-4 0  9995","2 28413 097.8244 019.0458 0016456 326.5043 033.5154 14.94013793616999","2004-035A","28413","6963.572","96.384","596.896","573.978"
"GENERATED VIA SPACETRACK.ORG API","JSPOC","14760","SL-8 R/B","ROCKET BODY","U","84019B","2016-01-09 21:57:29","361888","14.3574713","0.0028167","74.0438","3.541","349.2773","30.9041","0","999","66812","1.7146e-05","2.3e-07","0","1978726","0 SL-8 R/B","1 14760U 84019B   16009.91492317 +.00000023 +00000-0 +17146-4 0  9990","2 14760 074.0438 003.5410 0028167 349.2773 030.9041 14.35747130668123","1984-019B","14760","7150.721","100.296","792.728","752.445"
"GENERATED VIA SPACETRACK.ORG API","JSPOC","8027","SL-3 R/B","ROCKET BODY","U","75064B","2016-01-09 21:57:33","669792","14.07277532","0.0055193","81.2953","200.6003","305.4861","54.1165","0","999","7847","0.00012449","2.24e-06","0","1978726","0 SL-3 R/B","1  8027U 75064B   16009.91497303 +.00000224 +00000-0 +12449-3 0  9992","2  8027 081.2953 200.6003 0055193 305.4861 054.1165 14.07277532078474","1975-064B","8027","7246.839","102.325","908.702","828.707"
"GENERATED VIA SPACETRACK.ORG API","JSPOC","36039","SL-19 R/B","ROCKET BODY","U","09059D","2016-01-09 21:57:36","165024","14.87449732","0.0141854","98.4225","349.3315","155.8939","204.9002","0","999","33525","3.0688e-05","2.6e-06","0","1978726","0 SL-19 R/B","1 36039U 09059D   16009.91500191 +.00000260 +00000-0 +30688-4 0  9993","2 36039 098.4225 349.3315 0141854 155.8939 204.9002 14.87449732335258","2009-059D","36039","6984.044","96.809","704.980","506.837"
"GENERATED VIA SPACETRACK.ORG API","JSPOC","36597","CZ-2D R/B","ROCKET BODY","U","10027B","2016-01-09 21:57:37","735776","14.89663586","0.0061669","97.6414","336.7467","306.9767","52.5815","0","999","30222","8.902e-05","8.24e-06","0","1978726","0 CZ-2D R/B","1 36597U 10027B   16009.91502009 +.00000824 +00000-0 +89020-4 0  9999","2 36597 097.6414 336.7467 0061669 306.9767 052.5815 14.89663586302226","2010-027B","36597","6977.122","96.666","642.015","555.960"
"GENERATED VIA SPACETRACK.ORG API","JSPOC","17290","METEOR 2-15","PAYLOAD","U","87001A","2016-01-09 21:57:40","594752","13.84962399","0.0014258","82.4684","280.15","66.3831","340.8537","0","999","46623","6.893e-05","9.3e-07","0","1978726","0 METEOR 2-15","1 17290U 87001A   16009.91505318 +.00000093 +00000-0 +68930-4 0  9995","2 17290 082.4684 280.1500 0014258 066.3831 340.8537 13.84962399466231","1987-001A","17290","7324.475","103.973","956.783","935.897"
"GENERATED VIA SPACETRACK.ORG API","JSPOC","29092","YAOGAN 1","PAYLOAD","U","06015A","2016-01-09 21:57:40","746816","14.82567097","0.0001454","98.0024","14.7403","89.1633","331.201","0","999","52457","3.3815e-05","2.18e-06","0","1978726","0 YAOGAN 1","1 29092U 06015A   16009.91505494 +.00000218 +00000-0 +33815-4 0  9992","2 29092 098.0024 014.7403 0001454 089.1633 331.2010 14.82567097524572","2006-015A","29092","6999.369","97.128","622.252","620.217"
"GENERATED VIA SPACETRACK.ORG API","JSPOC","15595","GEOSAT","PAYLOAD","U","85021A","2016-01-09 21:57:55","183392","14.37922597","0.0002754","108.0518","88.0318","254.1181","199.5605","0","999","61475","4.1745e-05","-9e-08","0","1978726","0 GEOSAT","1 15595U 85021A   16009.91522203 -.00000009 +00000-0 +41745-4 0  9996","2 15595 108.0518 088.0318 0002754 254.1181 199.5605 14.37922597614755","1985-021A","15595","7143.507","100.144","767.339","763.405"
"GENERATED VIA SPACETRACK.ORG API","JSPOC","36827","PRISMA (TANGO)","PAYLOAD","U","10028F","2016-01-09 21:58:03","118368","14.42125714","0.0042865","98.4127","177.8093","177.1624","182.9816","0","999","15328","4.1422e-05","9.4e-07","0","1978726","0 PRISMA (TANGO)","1 36827U 10028F   16009.91531387 +.00000094 +00000-0 +41422-4 0  9990","2 36827 098.4127 177.8093 0042865 177.1624 182.9816 14.42125714153282","2010-028F","36827","7129.620","99.852","782.046","720.924"
"GENERATED VIA SPACETRACK.ORG API","JSPOC","13068","SL-3 R/B","ROCKET BODY","U","82013B","2016-01-09 21:58:07","606848","15.06326972","0.0020928","81.204","100.7524","246.0348","113.8684","0","999","84428","7.6488e-05","1.152e-05","0","1978726","0 SL-3 R/B","1 13068U 82013B   16009.91536582 +.00001152 +00000-0 +76488-4 0  9993","2 13068 081.2040 100.7524 0020928 246.0348 113.8684 15.06326972844280","1982-013B","13068","6925.572","95.596","561.931","532.943"
"GENERATED VIA SPACETRACK.ORG API","JSPOC","5905","COSMOS 480","PAYLOAD","U","72019A","2016-01-09 21:58:18","960672","13.19842192","0.0018465","82.9763","329.0142","352.4971","60.6004","0","999","10933","-1.1593e-05","8e-08","0","1978726","0 COSMOS 480","1  5905U 72019A   16009.91549723 +.00000008 +00000-0 -11593-4 0  9996","2  5905 082.9763 329.0142 0018465 352.4971 060.6004 13.19842192109334","1972-019A","5905","7563.459","109.103","1199.290","1171.358"
"GENERATED VIA SPACETRACK.ORG API","JSPOC","12326","COSMOS 1256","PAYLOAD","U","81022G","2016-01-09 21:58:18","621984","12.49547256","0.001191","74.0296","8.8788","125.6244","253.0133","0","999","58951","1.8617e-06","-1.5e-07","0","1978726","0 COSMOS 1256","1 12326U 81022G   16009.91549331 -.00000015 +00000-0 +18617-5 0  9993","2 12326 074.0296 008.8788 0011910 125.6244 253.0133 12.49547256589519","1981-022G","12326","7844.526","115.241","1475.734","1457.048"
